ONEWEB-0056             
1 45159U 20008AE  24163.58904176  .00000547  00000+0  15309-2 0  9995
2 45159  87.8935 182.5195 0001969  96.8003 263.3348 13.10370720211847
ONEWEB-0057             
1 45160U 20008AF  24163.51931730  .00000261  00000+0  71204-3 0  9996
2 45160  87.8936 182.5343 0002123  94.6616 265.4754 13.10370219212000
ONEWEB-0058             
1 45161U 20008AG  24163.58254411  .00000710  00000+0  19969-2 0  9996
2 45161  87.8932 182.5573 0002184  91.1127 269.0251 13.10372592212084
ONEWEB-0059             
1 45162U 20008AH  24163.57908696  .00000667  00000+0  18740-2 0  9994
2 45162  87.8939 182.5376 0002156  88.4881 271.6494 13.10373474211984
ONEWEB-0062             
1 45163U 20008AJ  24163.52928132 -.00000263  00000+0 -78820-3 0  9997
2 45163  87.8932 182.5324 0002153  82.2763 277.8609 13.10387744211845
ONEWEB-0065             
1 45164U 20008AK  24163.58406841  .00000718  00000+0  20216-2 0  9990
2 45164  87.8941 182.5274 0001913  95.9376 264.1969 13.10371810211546
ONEWEB-0066             
1 45424U 20020A   24163.56951858 -.00000437  00000+0 -12676-2 0  9995
2 45424  87.8958 167.4386 0002385  95.7628 264.3772 13.11413916206263
ONEWEB-0067             
1 45425U 20020B   24163.53068044  .00000515  00000+0  14172-2 0  9997
2 45425  87.8946 167.4085 0002137  96.8160 263.3211 13.11418320206312
